QZS-1R                  
1 49336U 21096A   23328.24632622 -.00000234  00000+0  00000+0 0  9996
2 49336  35.5237  93.6777 0751140 270.7146 282.0979  1.00264543  7623
